{
    "links": {
        "self": "http://www.neowsapp.com/rest/v1/neo/54017092?api_key=iIulBulltgU6a56xZRHN4H3l9WmuAYTsLGpBGhQ2"
    },
    "id": "54017092",
    "neo_reference_id": "54017092",
    "name": "(2020 KZ)",
    "designation": "2020 KZ",
    "nasa_jpl_url": "http://ssd.jpl.nasa.gov/sbdb.cgi?sstr=54017092",
    "absolute_magnitude_h": 25.456,
    "estimated_diameter": {
        "kilometers": {
            "estimated_diameter_min": 0.0215454206,
            "estimated_diameter_max": 0.0481770251
        },
        "meters": {
            "estimated_diameter_min": 21.5454205999,
            "estimated_diameter_max": 48.1770250652
        },
        "miles": {
            "estimated_diameter_min": 0.0133876995,
            "estimated_diameter_max": 0.0299358062
        },
        "feet": {
            "estimated_diameter_min": 70.687077721,
            "estimated_diameter_max": 158.061110915
        }
    },
    "is_potentially_hazardous_asteroid": false,
    "close_approach_data": [
        {
            "close_approach_date": "1927-05-08",
            "close_approach_date_full": "1927-May-08 02:14",
            "epoch_date_close_approach": -1346017560000,
            "relative_velocity": {
                "kilometers_per_second": "12.5728517569",
                "kilometers_per_hour": "45262.2663248177",
                "miles_per_hour": "28124.2120949957"
            },
            "miss_distance": {
                "astronomical": "0.0139024579",
                "lunar": "5.4080561231",
                "kilometers": "2079778.089604673",
                "miles": "1292314.1794755674"
            },
            "orbiting_body": "Mars"
        },
        {
            "close_approach_date": "1929-03-21",
            "close_approach_date_full": "1929-Mar-21 16:14",
            "epoch_date_close_approach": -1286955960000,
            "relative_velocity": {
                "kilometers_per_second": "1.6633687474",
                "kilometers_per_hour": "5988.1274906256",
                "miles_per_hour": "3720.7895510501"
            },
            "miss_distance": {
                "astronomical": "1.841761704",
                "lunar": "716.445302856",
                "kilometers": "275523627.96597048",
                "miles": "171202443.655253424"
            },
            "orbiting_body": "Juptr"
        },
        {
            "close_approach_date": "2020-05-18",
            "close_approach_date_full": "2020-May-18 01:37",
            "epoch_date_close_approach": 1589765820000,
            "relative_velocity": {
                "kilometers_per_second": "5.71366156",
                "kilometers_per_hour": "20569.1816159256",
                "miles_per_hour": "12780.8895435177"
            },
            "miss_distance": {
                "astronomical": "0.0916617554",
                "lunar": "35.6564228506",
                "kilometers": "13712403.368300998",
                "miles": "8520492.3525818524"
            },
            "orbiting_body": "Earth"
        }
    ],
    "orbital_data": {
        "orbit_id": "4",
        "orbit_determination_date": "2020-05-27 07:01:04",
        "first_observation_date": "2020-05-17",
        "last_observation_date": "2020-05-26",
        "data_arc_in_days": 9,
        "observations_used": 22,
        "orbit_uncertainty": "8",
        "minimum_orbit_intersection": ".0913011",
        "jupiter_tisserand_invariant": "3.565",
        "epoch_osculation": "2458991.5",
        "eccentricity": ".4882534253400934",
        "semi_major_axis": "2.121742291127779",
        "inclination": "3.781475452186995",
        "ascending_node_longitude": "100.5016910959552",
        "orbital_period": "1128.852960476479",
        "perihelion_distance": "1.085794349795703",
        "perihelion_argument": "128.1832628360608",
        "aphelion_distance": "3.157690232459854",
        "perihelion_time": "2458979.902207042935",
        "mean_anomaly": "3.698626491426378",
        "mean_motion": ".3189077874660018",
        "equinox": "J2000",
        "orbit_class": {
            "orbit_class_type": "AMO",
            "orbit_class_description": "Near-Earth asteroid orbits similar to that of 1221 Amor",
            "orbit_class_range": "1.017 AU < q (perihelion) < 1.3 AU"
        }
    },
    "is_sentry_object": false
}